COSMOS 2251 DEB         
1 37990U 93036BQR 17344.41907670  .00001137  00000-0  35408-3 0  9997
2 37990  74.0193 252.6437 0059863 326.7409  32.9989 14.41061855377995
